[{"OBJECT_NAME":"HELIOS 1B","OBJECT_ID":"1999-064A","EPOCH":"2026-03-30T03:50:24.046656","MEAN_MOTION":14.87777269,"ECCENTRICITY":0.0001745,"INCLINATION":98.1673,"RA_OF_ASC_NODE":352.0029,"ARG_OF_PERICENTER":47.3539,"MEAN_ANOMALY":312.7823,"EPHEMERIS_TYPE":0,"CLASSIFICATION_TYPE":"U","NORAD_CAT_ID":25977,"ELEMENT_SET_NO":999,"REV_AT_EPOCH":68830,"BSTAR":0.00023706,"MEAN_MOTION_DOT":2.105e-5,"MEAN_MOTION_DDOT":0},{"OBJECT_NAME":"TERRA","OBJECT_ID":"1999-068A","EPOCH":"2026-03-30T04:45:41.916384","MEAN_MOTION":14.6103664,"ECCENTRICITY":0.0003594,"INCLINATION":97.9549,"RA_OF_ASC_NODE":141.8453,"ARG_OF_PERICENTER":108.9557,"MEAN_ANOMALY":342.9004,"EPHEMERIS_TYPE":0,"CLASSIFICATION_TYPE":"U","NORAD_CAT_ID":25994,"ELEMENT_SET_NO":999,"REV_AT_EPOCH":39807,"BSTAR":0.00012633,"MEAN_MOTION_DOT":5.76e-6,"MEAN_MOTION_DDOT":0},{"OBJECT_NAME":"SL-16 R/B","OBJECT_ID":"2000-006B","EPOCH":"2026-03-30T03:33:16.996896","MEAN_MOTION":14.15828223,"ECCENTRICITY":0.0015632,"INCLINATION":71.0025,"RA_OF_ASC_NODE":54.8162,"ARG_OF_PERICENTER":157.8149,"MEAN_ANOMALY":202.3653,"EPHEMERIS_TYPE":0,"CLASSIFICATION_TYPE":"U","NORAD_CAT_ID":26070,"ELEMENT_SET_NO":999,"REV_AT_EPOCH":35145,"BSTAR":0.0001864,"MEAN_MOTION_DOT":3.19e-6,"MEAN_MOTION_DDOT":0},{"OBJECT_NAME":"TITAN 4B R/B","OBJECT_ID":"2000-047B","EPOCH":"2026-03-30T04:03:16.443648","MEAN_MOTION":15.09752161,"ECCENTRICITY":0.0039865,"INCLINATION":67.9917,"RA_OF_ASC_NODE":342.9173,"ARG_OF_PERICENTER":11.3871,"MEAN_ANOMALY":348.817,"EPHEMERIS_TYPE":0,"CLASSIFICATION_TYPE":"U","NORAD_CAT_ID":26474,"ELEMENT_SET_NO":999,"REV_AT_EPOCH":39600,"BSTAR":0.00031932,"MEAN_MOTION_DOT":5.128e-5,"MEAN_MOTION_DDOT":0},{"OBJECT_NAME":"ENVISAT","OBJECT_ID":"2002-009A","EPOCH":"2026-03-30T02:43:59.436768","MEAN_MOTION":14.39044031,"ECCENTRICITY":0.0001211,"INCLINATION":98.3761,"RA_OF_ASC_NODE":42.2291,"ARG_OF_PERICENTER":81.8079,"MEAN_ANOMALY":288.6685,"EPHEMERIS_TYPE":0,"CLASSIFICATION_TYPE":"U","NORAD_CAT_ID":27386,"ELEMENT_SET_NO":999,"REV_AT_EPOCH":26211,"BSTAR":5.9965e-5,"MEAN_MOTION_DOT":1.42e-6,"MEAN_MOTION_DDOT":0},{"OBJECT_NAME":"IDEFIX & ARIANE 42P R/B","OBJECT_ID":"2002-021B","EPOCH":"2026-03-30T01:15:12.936384","MEAN_MOTION":14.31039901,"ECCENTRICITY":0.0012641,"INCLINATION":98.5893,"RA_OF_ASC_NODE":27.4179,"ARG_OF_PERICENTER":124.2025,"MEAN_ANOMALY":236.0358,"EPHEMERIS_TYPE":0,"CLASSIFICATION_TYPE":"U","NORAD_CAT_ID":27422,"ELEMENT_SET_NO":999,"REV_AT_EPOCH":24693,"BSTAR":0.00014104,"MEAN_MOTION_DOT":3.28e-6,"MEAN_MOTION_DDOT":0},{"OBJECT_NAME":"AQUA","OBJECT_ID":"2002-022A","EPOCH":"2026-03-30T05:10:49.084032","MEAN_MOTION":14.62024113,"ECCENTRICITY":0.0001193,"INCLINATION":98.4208,"RA_OF_ASC_NODE":56.9601,"ARG_OF_PERICENTER":117.6596,"MEAN_ANOMALY":299.9408,"EPHEMERIS_TYPE":0,"CLASSIFICATION_TYPE":"U","NORAD_CAT_ID":27424,"ELEMENT_SET_NO":999,"REV_AT_EPOCH":27173,"BSTAR":0.00026493,"MEAN_MOTION_DOT":1.28e-5,"MEAN_MOTION_DDOT":0},{"OBJECT_NAME":"CZ-4B R/B","OBJECT_ID":"2002-024C","EPOCH":"2026-03-30T03:40:05.134944","MEAN_MOTION":14.14551315,"ECCENTRICITY":0.0049464,"INCLINATION":98.8795,"RA_OF_ASC_NODE":142.4525,"ARG_OF_PERICENTER":325.8795,"MEAN_ANOMALY":54.1105,"EPHEMERIS_TYPE":0,"CLASSIFICATION_TYPE":"U","NORAD_CAT_ID":27432,"ELEMENT_SET_NO":999,"REV_AT_EPOCH":23213,"BSTAR":5.0541e-5,"MEAN_MOTION_DOT":5.3e-7,"MEAN_MOTION_DDOT":0},{"OBJECT_NAME":"MIDORI II (ADEOS-II)","OBJECT_ID":"2002-056A","EPOCH":"2026-03-30T04:11:58.087104","MEAN_MOTION":14.29300715,"ECCENTRICITY":6.66e-5,"INCLINATION":98.7803,"RA_OF_ASC_NODE":47.7987,"ARG_OF_PERICENTER":19.8491,"MEAN_ANOMALY":340.2716,"EPHEMERIS_TYPE":0,"CLASSIFICATION_TYPE":"U","NORAD_CAT_ID":27597,"ELEMENT_SET_NO":999,"REV_AT_EPOCH":21322,"BSTAR":0.00017397,"MEAN_MOTION_DOT":3.97e-6,"MEAN_MOTION_DDOT":0},{"OBJECT_NAME":"H-2A R/B","OBJECT_ID":"2002-056E","EPOCH":"2026-03-30T03:29:12.984288","MEAN_MOTION":14.33774638,"ECCENTRICITY":0.007139,"INCLINATION":98.3237,"RA_OF_ASC_NODE":48.7365,"ARG_OF_PERICENTER":100.4325,"MEAN_ANOMALY":271.6055,"EPHEMERIS_TYPE":0,"CLASSIFICATION_TYPE":"U","NORAD_CAT_ID":27601,"ELEMENT_SET_NO":999,"REV_AT_EPOCH":21704,"BSTAR":0.00014853,"MEAN_MOTION_DOT":3.84e-6,"MEAN_MOTION_DDOT":0},{"OBJECT_NAME":"CZ-4B R/B","OBJECT_ID":"2003-049C","EPOCH":"2026-03-30T05:16:55.096896","MEAN_MOTION":14.55038755,"ECCENTRICITY":0.0048363,"INCLINATION":98.6893,"RA_OF_ASC_NODE":84.9333,"ARG_OF_PERICENTER":167.7256,"MEAN_ANOMALY":192.513,"EPHEMERIS_TYPE":0,"CLASSIFICATION_TYPE":"U","NORAD_CAT_ID":28059,"ELEMENT_SET_NO":999,"REV_AT_EPOCH":18958,"BSTAR":0.00011745,"MEAN_MOTION_DOT":4.63e-6,"MEAN_MOTION_DDOT":0},{"OBJECT_NAME":"CZ-2C R/B","OBJECT_ID":"2004-012C","EPOCH":"2026-03-30T02:58:49.041408","MEAN_MOTION":15.67052536,"ECCENTRICITY":0.0013413,"INCLINATION":97.7184,"RA_OF_ASC_NODE":156.3867,"ARG_OF_PERICENTER":228.0705,"MEAN_ANOMALY":131.9411,"EPHEMERIS_TYPE":0,"CLASSIFICATION_TYPE":"U","NORAD_CAT_ID":28222,"ELEMENT_SET_NO":999,"REV_AT_EPOCH":20747,"BSTAR":0.00069856,"MEAN_MOTION_DOT":0.00075103,"MEAN_MOTION_DDOT":0},{"OBJECT_NAME":"SL-16 R/B","OBJECT_ID":"2004-021B","EPOCH":"2026-03-30T00:49:32.659392","MEAN_MOTION":14.14595664,"ECCENTRICITY":0.0005047,"INCLINATION":71.001,"RA_OF_ASC_NODE":189.7984,"ARG_OF_PERICENTER":344.7755,"MEAN_ANOMALY":15.3215,"EPHEMERIS_TYPE":0,"CLASSIFICATION_TYPE":"U","NORAD_CAT_ID":28353,"ELEMENT_SET_NO":999,"REV_AT_EPOCH":12571,"BSTAR":0.00015596,"MEAN_MOTION_DOT":2.52e-6,"MEAN_MOTION_DDOT":0},{"OBJECT_NAME":"CZ-4B R/B","OBJECT_ID":"2004-035C","EPOCH":"2026-03-30T03:04:47.780256","MEAN_MOTION":15.29419641,"ECCENTRICITY":0.0030047,"INCLINATION":97.3466,"RA_OF_ASC_NODE":123.1271,"ARG_OF_PERICENTER":255.031,"MEAN_ANOMALY":104.7604,"EPHEMERIS_TYPE":0,"CLASSIFICATION_TYPE":"U","NORAD_CAT_ID":28415,"ELEMENT_SET_NO":999,"REV_AT_EPOCH":18303,"BSTAR":0.0003706,"MEAN_MOTION_DOT":0.00010643,"MEAN_MOTION_DDOT":0},{"OBJECT_NAME":"CZ-2C R/B","OBJECT_ID":"2004-046B","EPOCH":"2026-03-30T04:05:28.124160","MEAN_MOTION":14.26999609,"ECCENTRICITY":0.0140598,"INCLINATION":98.1978,"RA_OF_ASC_NODE":2.8784,"ARG_OF_PERICENTER":94.2724,"MEAN_ANOMALY":267.4539,"EPHEMERIS_TYPE":0,"CLASSIFICATION_TYPE":"U","NORAD_CAT_ID":28480,"ELEMENT_SET_NO":999,"REV_AT_EPOCH":11142,"BSTAR":8.6228e-5,"MEAN_MOTION_DOT":1.93e-6,"MEAN_MOTION_DDOT":0},{"OBJECT_NAME":"ARIANE 5 R/B","OBJECT_ID":"2004-049H","EPOCH":"2026-03-30T04:18:51.236352","MEAN_MOTION":14.85303661,"ECCENTRICITY":0.0082913,"INCLINATION":98.2658,"RA_OF_ASC_NODE":258.4083,"ARG_OF_PERICENTER":284.8899,"MEAN_ANOMALY":74.3144,"EPHEMERIS_TYPE":0,"CLASSIFICATION_TYPE":"U","NORAD_CAT_ID":28499,"ELEMENT_SET_NO":999,"REV_AT_EPOCH":14883,"BSTAR":0.00012888,"MEAN_MOTION_DOT":1.111e-5,"MEAN_MOTION_DDOT":0},{"OBJECT_NAME":"CZ-2D R/B","OBJECT_ID":"2005-024B","EPOCH":"2026-03-30T00:42:24.695136","MEAN_MOTION":15.62029255,"ECCENTRICITY":0.0002144,"INCLINATION":97.3578,"RA_OF_ASC_NODE":104.948,"ARG_OF_PERICENTER":327.7019,"MEAN_ANOMALY":32.4108,"EPHEMERIS_TYPE":0,"CLASSIFICATION_TYPE":"U","NORAD_CAT_ID":28738,"ELEMENT_SET_NO":999,"REV_AT_EPOCH":14295,"BSTAR":0.00063732,"MEAN_MOTION_DOT":0.00055812,"MEAN_MOTION_DDOT":0}]
